OBJECT_NAME,OBJECT_ID,EPOCH,MEAN_MOTION,ECCENTRICITY,INCLINATION,RA_OF_ASC_NODE,ARG_OF_PERICENTER,MEAN_ANOMALY,EPHEMERIS_TYPE,CLASSIFICATION_TYPE,NORAD_CAT_ID,ELEMENT_SET_NO,REV_AT_EPOCH,BSTAR,MEAN_MOTION_DOT,MEAN_MOTION_DDOT
STARLINK-37804,2026-119G,2026-06-22T12:23:14.764704,15.49213814,.00005651,97.2866,199.2318,85.9933,274.1383,0,U,69302,999,485,.89961172E-3,.49185E-3,0
STARLINK-37730,2026-119H,2026-06-22T20:00:01.999872,15.49838705,.00021758,97.2856,199.7913,82.2347,91.5330,0,U,69303,999,495,-.46283825E-1,-.2266637E-1,0
STARLINK-37731,2026-119J,2026-06-22T12:24:48.013632,15.49189587,.00012722,97.2846,199.2299,117.2266,242.9116,0,U,69304,999,485,.5145853E-3,.27996E-3,0
STARLINK-37734,2026-119K,2026-06-22T20:00:01.999872,15.49161790,.00005551,97.2861,199.7180,234.4250,120.5675,0,U,69305,999,495,.73741611E-3,.40181E-3,0
STARLINK-37701,2026-119L,2026-06-22T20:00:01.999872,15.49160361,.00019247,97.2860,199.7778,89.4631,48.3089,0,U,69306,999,495,.59116621E-3,.32161E-3,0
STARLINK-37732,2026-119M,2026-06-22T20:00:01.999872,15.45454539,.00019175,97.2854,199.8426,90.4787,185.9682,0,U,69307,999,495,-.55788156E-1,-.2378627E-1,0
STARLINK-37689,2026-119N,2026-06-22T07:40:48.977184,15.49196676,.00003906,97.2854,199.0380,262.1487,97.9719,0,U,69308,999,482,.10755474E-2,.58859E-3,0
STARLINK-37619,2026-119P,2026-06-22T20:00:01.999872,15.48005607,.00019237,97.2856,199.8224,107.2057,135.9231,0,U,69309,999,495,-.5736289E-1,-.2637071E-1,0
STARLINK-37794,2026-119Q,2026-06-22T20:00:01.999872,15.49156574,.00008075,97.2858,199.7163,88.5534,261.4570,0,U,69310,999,495,.84052414E-3,.45837E-3,0
STARLINK-37795,2026-119R,2026-06-22T15:19:19.575264,15.49211714,.00003198,97.2852,199.3714,79.2642,280.8646,0,U,69311,999,487,.11671913E-2,.63957E-3,0
STARLINK-37790,2026-119S,2026-06-22T20:00:01.999872,15.49160974,.00011817,97.2863,199.7773,88.9979,44.8908,0,U,69312,999,495,.77831035E-3,.42426E-3,0
STARLINK-37676,2026-119T,2026-06-22T20:00:01.999872,15.49137654,.0001935,97.2848,199.8657,89.1639,245.3934,0,U,69313,999,495,-.52004627E-1,-.2504773E-1,0
STARLINK-37617,2026-119U,2026-06-22T20:00:01.999872,15.49187427,.00003635,97.2863,199.7838,54.7200,95.6078,0,U,69314,999,495,.81406975E-3,.44431E-3,0
STARLINK-37627,2026-119V,2026-06-22T20:00:01.999872,15.49159685,.00012211,97.2862,199.7884,73.6445,87.6132,0,U,69315,999,495,.80148671E-3,.43697E-3,0
STARLINK-37738,2026-119W,2026-06-22T20:00:01.999872,15.49172021,.00017796,97.2858,199.7872,90.7021,69.2731,0,U,69316,999,495,.58708369E-3,.31951E-3,0
STARLINK-37799,2026-119X,2026-06-22T20:00:01.999872,15.49181156,.00008737,97.2857,199.8906,102.8763,291.0991,0,U,69317,999,490,-.51206893E-1,-.2473202E-1,0
STARLINK-37802,2026-119Y,2026-06-22T20:00:01.999872,15.49163230,.00009741,97.2854,199.8469,73.8219,222.7577,0,U,69318,999,495,.78762522E-3,.42941E-3,0
STARLINK-37803,2026-119Z,2026-06-22T20:00:01.999872,15.49167657,.00010867,97.2858,199.7133,97.2726,248.1875,0,U,69319,999,490,.49448897E-3,.26875E-3,0
GUOWANG TEST OBJECT A,2026-120A,2026-06-21T19:36:26.634816,15.38939558,.00113591,55.0017,6.9033,337.7695,22.2839,0,U,69320,999,340,.23139514E-3,.8673E-4,0
GUOWANG TEST OBJECT B,2026-120B,2026-06-21T19:34:31.539648,15.38809546,.00107067,54.9988,6.8984,342.8404,17.2260,0,U,69321,999,340,.27493147E-3,.10334E-3,0
GUOWANG TEST OBJECT C,2026-120C,2026-06-17T01:39:23.671872,15.39560249,.0010695,55.0002,28.2171,337.2158,22.8395,0,U,69322,999,267,.3489E-3,.13562E-3,0
GUOWANG TEST OBJECT D,2026-120D,2026-06-22T12:37:45.196320,15.38640358,.0012057,54.9993,3.6577,357.8429,2.2545,0,U,69323,999,351,.44872143E-4,.1345E-4,0
QIANFAN-163,2026-121A,2026-06-20T19:57:23.546592,13.59758614,.00204763,89.0159,300.1473,178.2353,181.8879,0,U,69325,999,265,.30105417E-4,.35E-6,0
QIANFAN-164,2026-121B,2026-06-11T09:53:52.001952,13.60355100,.0019383,89.0157,301.0998,205.3124,154.7084,0,U,69326,999,137,.12975542E-3,.11E-5,0
SZ-22 MODULE,2025-272C,2026-06-22T17:51:51.867648,15.60408825,.0006449,41.4802,288.3202,135.4391,224.6967,0,U,69328,999,419,.20774791E-3,.17264E-3,0
STARLINK-37733,2026-122A,2026-06-22T20:00:01.999872,15.54980831,.00015977,97.2847,203.5055,87.4990,253.2746,0,U,69329,999,425,-.44478723E-1,-.2628299E-1,0
STARLINK-37772,2026-122B,2026-06-22T20:00:01.999872,15.57760313,.00014285,97.2859,203.5389,76.8281,330.7294,0,U,69330,999,420,-.38288575E-1,-.2473635E-1,0
STARLINK-37768,2026-122C,2026-06-22T20:00:01.999872,15.49172432,.00016378,97.2852,203.4380,61.7651,117.7638,0,U,69331,999,420,.52552243E-3,.28579E-3,0
STARLINK-37833,2026-122D,2026-06-22T20:00:01.999872,15.54051673,.00015875,97.2853,203.5065,86.7110,254.7634,0,U,69332,999,420,-.45423292E-1,-.2597959E-1,0
