STARLINK-37804          
1 69302U 26119G   26173.51614311  .00049185  00000+0  89961-3 0  9992
2 69302  97.2866 199.2318 0000565  85.9933 274.1383 15.49213814  4859
STARLINK-37730          
1 69303U 26119H   26173.83335648 -.02266637  00000+0 -46284-1 0  9997
2 69303  97.2856 199.7913 0002175  82.2347  91.5330 15.49838705  4959
STARLINK-37731          
1 69304U 26119J   26173.51722238  .00027996  00000+0  51459-3 0  9999
2 69304  97.2846 199.2299 0001272 117.2266 242.9116 15.49189587  4857
STARLINK-37734          
1 69305U 26119K   26173.83335648  .00040181  00000+0  73742-3 0  9990
2 69305  97.2861 199.7180 0000555 234.4250 120.5675 15.49161790  4955
STARLINK-37701          
1 69306U 26119L   26173.83335648  .00032161  00000+0  59117-3 0  9990
2 69306  97.2860 199.7778 0001924  89.4631  48.3089 15.49160361  4959
STARLINK-37732          
1 69307U 26119M   26173.83335648 -.02378627  00000+0 -55788-1 0  9993
2 69307  97.2854 199.8426 0001917  90.4787 185.9682 15.45454539  4956
STARLINK-37689          
1 69308U 26119N   26173.32001131  .00058859  00000+0  10755-2 0  9999
2 69308  97.2854 199.0380 0000390 262.1487  97.9719 15.49196676  4825
STARLINK-37619          
1 69309U 26119P   26173.83335648 -.02637071  00000+0 -57363-1 0  9997
2 69309  97.2856 199.8224 0001923 107.2057 135.9231 15.48005607  4956
STARLINK-37794          
1 69310U 26119Q   26173.83335648  .00045837  00000+0  84052-3 0  9995
2 69310  97.2858 199.7163 0000807  88.5534 261.4570 15.49156574  4954
STARLINK-37795          
1 69311U 26119R   26173.63842101  .00063957  00000+0  11672-2 0  9991
2 69311  97.2852 199.3714 0000319  79.2642 280.8646 15.49211714  4870
STARLINK-37790          
1 69312U 26119S   26173.83335648  .00042426  00000+0  77831-3 0  9995
2 69312  97.2863 199.7773 0001181  88.9979  44.8908 15.49160974  4959
STARLINK-37676          
1 69313U 26119T   26173.83335648 -.02504773  00000+0 -52005-1 0  9992
2 69313  97.2848 199.8657 0001935  89.1639 245.3934 15.49137654  4954
STARLINK-37617          
1 69314U 26119U   26173.83335648  .00044431  00000+0  81407-3 0  9999
2 69314  97.2863 199.7838 0000363  54.7200  95.6078 15.49187427  4956
STARLINK-37627          
1 69315U 26119V   26173.83335648  .00043697  00000+0  80149-3 0  9995
2 69315  97.2862 199.7884 0001221  73.6445  87.6132 15.49159685  4959
STARLINK-37738          
1 69316U 26119W   26173.83335648  .00031951  00000+0  58708-3 0  9992
2 69316  97.2858 199.7872 0001779  90.7021  69.2731 15.49172021  4950
STARLINK-37799          
1 69317U 26119X   26173.83335648 -.02473202  00000+0 -51207-1 0  9991
2 69317  97.2857 199.8906 0000873 102.8763 291.0991 15.49181156  4908
STARLINK-37802          
1 69318U 26119Y   26173.83335648  .00042941  00000+0  78763-3 0  9998
2 69318  97.2854 199.8469 0000974  73.8219 222.7577 15.49163230  4954
STARLINK-37803          
1 69319U 26119Z   26173.83335648  .00026875  00000+0  49449-3 0  9996
2 69319  97.2858 199.7133 0001086  97.2726 248.1875 15.49167657  4909
GUOWANG TEST OBJECT A   
1 69320U 26120A   26172.81697494  .00008673  00000+0  23140-3 0  9993
2 69320  55.0017   6.9033 0011359 337.7695  22.2839 15.38939558  3409
GUOWANG TEST OBJECT B   
1 69321U 26120B   26172.81564282  .00010334  00000+0  27493-3 0  9994
2 69321  54.9988   6.8984 0010706 342.8404  17.2260 15.38809546  3404
GUOWANG TEST OBJECT C   
1 69322U 26120C   26168.06902398  .00013562  00000+0  34890-3 0  9996
2 69322  55.0002  28.2171 0010695 337.2158  22.8395 15.39560249  2675
GUOWANG TEST OBJECT D   
1 69323U 26120D   26173.52621755  .00001345  00000+0  44872-4 0  9997
2 69323  54.9993   3.6577 0012057 357.8429   2.2545 15.38640358  3515
QIANFAN-163             
1 69325U 26121A   26171.83152253  .00000035  00000+0  30105-4 0  9993
2 69325  89.0159 300.1473 0020476 178.2353 181.8879 13.59758614  2659
QIANFAN-164             
1 69326U 26121B   26162.41240743  .00000110  00000+0  12976-3 0  9999
2 69326  89.0157 301.0998 0019383 205.3124 154.7084 13.60355100  1373
SZ-22 MODULE            
1 69328U 25272C   26173.74435032  .00017264  00000+0  20775-3 0  9996
2 69328  41.4802 288.3202 0006449 135.4391 224.6967 15.60408825  4192
STARLINK-37733          
1 69329U 26122A   26173.83335648 -.02628299  00000+0 -44479-1 0  9999
2 69329  97.2847 203.5055 0001597  87.4990 253.2746 15.54980831  4251
STARLINK-37772          
1 69330U 26122B   26173.83335648 -.02473635  00000+0 -38289-1 0  9995
2 69330  97.2859 203.5389 0001428  76.8281 330.7294 15.57760313  4202
STARLINK-37768          
1 69331U 26122C   26173.83335648  .00028579  00000+0  52552-3 0  9996
2 69331  97.2852 203.4380 0001637  61.7651 117.7638 15.49172432  4207
STARLINK-37833          
1 69332U 26122D   26173.83335648 -.02597959  00000+0 -45423-1 0  9991
2 69332  97.2853 203.5065 0001587  86.7110 254.7634 15.54051673  4208
